[
    {
        "Altitude(m)": 605470.7697422653,
        "Argument of Periapsis(deg)": 0.0,
        "Eccentricity": 0.0,
        "Inclination(deg)": 60.0,
        "Latitude(deg)": 27.988140377586724,
        "Longitude(deg)": 12.262885498701369,
        "Mean Anomaly(deg)": -212.7273,
        "RAAN(deg)": 310.0,
        "Satellite Name": "Test1 1373",
        "Satellite Number": 1373,
        "Semi-Major Axis(m)": 6980739.136638005,
        "Time(s)": 0
    },
    {
        "Altitude(m)": 605395.8080945621,
        "Argument of Periapsis(deg)": 0.00010418945913296404,
        "Eccentricity": 0.0,
        "Inclination(deg)": 60.0,
        "Latitude(deg)": 27.47383179026308,
        "Longitude(deg)": 12.616074396244684,
        "Mean Anomaly(deg)": -212.10719385453817,
        "RAAN(deg)": 309.99957995086027,
        "Satellite Name": "Test1 1373",
        "Satellite Number": 1373,
        "Semi-Major Axis(m)": 6980739.136638005,
        "Time(s)": 10
    }
]